CCSDS_OMM_VERS = 2.0
CREATION_DATE  = 
ORIGINATOR     = 

OBJECT_NAME    = SL-4 R/B
OBJECT_ID      = 2014-021B
CENTER_NAME    = EARTH
REF_FRAME      = TEME
TIME_SYSTEM    = UTC
MEAN_ELEMENT_THEORY = SGP/SGP4

EPOCH          = 2025-12-27T07:28:36.810624
MEAN_MOTION    = 15.37011716
ECCENTRICITY   = .01006
INCLINATION    = 51.6092
RA_OF_ASC_NODE = 329.7595
ARG_OF_PERICENTER = 198.8547
MEAN_ANOMALY   = 160.8700

EPHEMERIS_TYPE = 0
CLASSIFICATION_TYPE = U
NORAD_CAT_ID   = 39679
ELEMENT_SET_NO = 999
REV_AT_EPOCH   = 64513
BSTAR          = .29504E-3
MEAN_MOTION_DOT = .1245E-3
MEAN_MOTION_DDOT = 0

CCSDS_OMM_VERS = 2.0
CREATION_DATE  = 
ORIGINATOR     = 

OBJECT_NAME    = ALOS-2
OBJECT_ID      = 2014-029A
CENTER_NAME    = EARTH
REF_FRAME      = TEME
TIME_SYSTEM    = UTC
MEAN_ELEMENT_THEORY = SGP/SGP4

EPOCH          = 2025-12-27T19:48:15.319584
MEAN_MOTION    = 14.79474824
ECCENTRICITY   = .0001431
INCLINATION    = 97.9213
RA_OF_ASC_NODE = 96.4561
ARG_OF_PERICENTER = 99.6969
MEAN_ANOMALY   = 260.4404

EPHEMERIS_TYPE = 0
CLASSIFICATION_TYPE = U
NORAD_CAT_ID   = 39766
ELEMENT_SET_NO = 999
REV_AT_EPOCH   = 62624
BSTAR          = .65538E-3
MEAN_MOTION_DOT = .4847E-4
MEAN_MOTION_DDOT = 0

CCSDS_OMM_VERS = 2.0
CREATION_DATE  = 
ORIGINATOR     = 

OBJECT_NAME    = YAOGAN-29
OBJECT_ID      = 2015-069A
CENTER_NAME    = EARTH
REF_FRAME      = TEME
TIME_SYSTEM    = UTC
MEAN_ELEMENT_THEORY = SGP/SGP4

EPOCH          = 2025-12-27T20:48:25.996320
MEAN_MOTION    = 14.82896862
ECCENTRICITY   = .0001055
INCLINATION    = 98.0211
RA_OF_ASC_NODE = 25.0859
ARG_OF_PERICENTER = 158.1406
MEAN_ANOMALY   = 201.9852

EPHEMERIS_TYPE = 0
CLASSIFICATION_TYPE = U
NORAD_CAT_ID   = 41038
ELEMENT_SET_NO = 999
REV_AT_EPOCH   = 54523
BSTAR          = -.8727E-5
MEAN_MOTION_DOT = -.125E-5
MEAN_MOTION_DDOT = 0

CCSDS_OMM_VERS = 2.0
CREATION_DATE  = 
ORIGINATOR     = 

OBJECT_NAME    = ASTRO-H (HITOMI)
OBJECT_ID      = 2016-012A
CENTER_NAME    = EARTH
REF_FRAME      = TEME
TIME_SYSTEM    = UTC
MEAN_ELEMENT_THEORY = SGP/SGP4

EPOCH          = 2025-12-27T15:14:54.559680
MEAN_MOTION    = 15.09451853
ECCENTRICITY   = .0009652
INCLINATION    = 30.9994
RA_OF_ASC_NODE = 101.3349
ARG_OF_PERICENTER = 327.9799
MEAN_ANOMALY   = 32.0252

EPHEMERIS_TYPE = 0
CLASSIFICATION_TYPE = U
NORAD_CAT_ID   = 41337
ELEMENT_SET_NO = 999
REV_AT_EPOCH   = 54133
BSTAR          = .26118E-3
MEAN_MOTION_DOT = .4382E-4
MEAN_MOTION_DDOT = 0

CCSDS_OMM_VERS = 2.0
CREATION_DATE  = 
ORIGINATOR     = 

OBJECT_NAME    = HXMT (HUIYAN)
OBJECT_ID      = 2017-034A
CENTER_NAME    = EARTH
REF_FRAME      = TEME
TIME_SYSTEM    = UTC
MEAN_ELEMENT_THEORY = SGP/SGP4

EPOCH          = 2025-12-27T21:00:54.140832
MEAN_MOTION    = 15.16418404
ECCENTRICITY   = .0031522
INCLINATION    = 43.0145
RA_OF_ASC_NODE = 55.6258
ARG_OF_PERICENTER = 142.5538
MEAN_ANOMALY   = 217.7514

EPHEMERIS_TYPE = 0
CLASSIFICATION_TYPE = U
NORAD_CAT_ID   = 42758
ELEMENT_SET_NO = 999
REV_AT_EPOCH   = 47163
BSTAR          = .38498E-3
MEAN_MOTION_DOT = .7481E-4
MEAN_MOTION_DDOT = 0

CCSDS_OMM_VERS = 2.0
CREATION_DATE  = 
ORIGINATOR     = 

OBJECT_NAME    = CZ-2C R/B
OBJECT_ID      = 2018-054D
CENTER_NAME    = EARTH
REF_FRAME      = TEME
TIME_SYSTEM    = UTC
MEAN_ELEMENT_THEORY = SGP/SGP4

EPOCH          = 2025-12-27T13:26:52.823904
MEAN_MOTION    = 15.77311118
ECCENTRICITY   = .0014185
INCLINATION    = 35.1325
RA_OF_ASC_NODE = 80.1600
ARG_OF_PERICENTER = 290.6341
MEAN_ANOMALY   = 69.2872

EPHEMERIS_TYPE = 0
CLASSIFICATION_TYPE = U
NORAD_CAT_ID   = 43521
ELEMENT_SET_NO = 999
REV_AT_EPOCH   = 41739
BSTAR          = .83274E-3
MEAN_MOTION_DOT = .145742E-2
MEAN_MOTION_DDOT = 0

CCSDS_OMM_VERS = 2.0
CREATION_DATE  = 
ORIGINATOR     = 

OBJECT_NAME    = SAOCOM 1A
OBJECT_ID      = 2018-076A
CENTER_NAME    = EARTH
REF_FRAME      = TEME
TIME_SYSTEM    = UTC
MEAN_ELEMENT_THEORY = SGP/SGP4

EPOCH          = 2025-12-27T20:40:59.249568
MEAN_MOTION    = 14.82147321
ECCENTRICITY   = .0001335
INCLINATION    = 97.8847
RA_OF_ASC_NODE = 186.0635
ARG_OF_PERICENTER = 82.4480
MEAN_ANOMALY   = 277.6885

EPHEMERIS_TYPE = 0
CLASSIFICATION_TYPE = U
NORAD_CAT_ID   = 43641
ELEMENT_SET_NO = 999
REV_AT_EPOCH   = 39072
BSTAR          = -.83831E-5
MEAN_MOTION_DOT = -.119E-5
MEAN_MOTION_DDOT = 0

CCSDS_OMM_VERS = 2.0
CREATION_DATE  = 
ORIGINATOR     = 

OBJECT_NAME    = H-2A R/B
OBJECT_ID      = 2018-084L
CENTER_NAME    = EARTH
REF_FRAME      = TEME
TIME_SYSTEM    = UTC
MEAN_ELEMENT_THEORY = SGP/SGP4

EPOCH          = 2025-12-27T12:42:45.552096
MEAN_MOTION    = 15.37926325
ECCENTRICITY   = .002641
INCLINATION    = 98.8771
RA_OF_ASC_NODE = 198.6806
ARG_OF_PERICENTER = 274.5412
MEAN_ANOMALY   = 85.2812

EPHEMERIS_TYPE = 0
CLASSIFICATION_TYPE = U
NORAD_CAT_ID   = 43682
ELEMENT_SET_NO = 999
REV_AT_EPOCH   = 39467
BSTAR          = .65165E-3
MEAN_MOTION_DOT = .24532E-3
MEAN_MOTION_DDOT = 0

CCSDS_OMM_VERS = 2.0
CREATION_DATE  = 
ORIGINATOR     = 

OBJECT_NAME    = SAOCOM 1B
OBJECT_ID      = 2020-059A
CENTER_NAME    = EARTH
REF_FRAME      = TEME
TIME_SYSTEM    = UTC
MEAN_ELEMENT_THEORY = SGP/SGP4

EPOCH          = 2025-12-27T19:48:46.450368
MEAN_MOTION    = 14.82156815
ECCENTRICITY   = .0001475
INCLINATION    = 97.8845
RA_OF_ASC_NODE = 185.1278
ARG_OF_PERICENTER = 85.7803
MEAN_ANOMALY   = 274.3579

EPHEMERIS_TYPE = 0
CLASSIFICATION_TYPE = U
NORAD_CAT_ID   = 46265
ELEMENT_SET_NO = 999
REV_AT_EPOCH   = 28810
BSTAR          = .16866E-3
MEAN_MOTION_DOT = .1291E-4
MEAN_MOTION_DDOT = 0

CCSDS_OMM_VERS = 2.0
CREATION_DATE  = 
ORIGINATOR     = 

OBJECT_NAME    = CSS (TIANHE)
OBJECT_ID      = 2021-035A
CENTER_NAME    = EARTH
REF_FRAME      = TEME
TIME_SYSTEM    = UTC
MEAN_ELEMENT_THEORY = SGP/SGP4

EPOCH          = 2025-12-27T19:52:34.568832
MEAN_MOTION    = 15.59773479
ECCENTRICITY   = .0008846
INCLINATION    = 41.4675
RA_OF_ASC_NODE = 285.0647
ARG_OF_PERICENTER = 162.3224
MEAN_ANOMALY   = 197.7924

EPHEMERIS_TYPE = 0
CLASSIFICATION_TYPE = U
NORAD_CAT_ID   = 48274
ELEMENT_SET_NO = 999
REV_AT_EPOCH   = 26638
BSTAR          = .24146E-3
MEAN_MOTION_DOT = .19655E-3
MEAN_MOTION_DDOT = 0

CCSDS_OMM_VERS = 2.0
CREATION_DATE  = 
ORIGINATOR     = 

OBJECT_NAME    = COSMOS 2550
OBJECT_ID      = 2021-056A
CENTER_NAME    = EARTH
REF_FRAME      = TEME
TIME_SYSTEM    = UTC
MEAN_ELEMENT_THEORY = SGP/SGP4

EPOCH          = 2025-12-27T20:30:03.407904
MEAN_MOTION    = 15.33832152
ECCENTRICITY   = .000838
INCLINATION    = 67.1449
RA_OF_ASC_NODE = 258.2176
ARG_OF_PERICENTER = 269.3966
MEAN_ANOMALY   = 90.6228

EPHEMERIS_TYPE = 0
CLASSIFICATION_TYPE = U
NORAD_CAT_ID   = 48865
ELEMENT_SET_NO = 999
REV_AT_EPOCH   = 25244
BSTAR          = .11403E-5
MEAN_MOTION_DOT = -.154E-5
MEAN_MOTION_DDOT = 0

CCSDS_OMM_VERS = 2.0
CREATION_DATE  = 
ORIGINATOR     = 

OBJECT_NAME    = CZ-2C R/B
OBJECT_ID      = 2022-058K
CENTER_NAME    = EARTH
REF_FRAME      = TEME
TIME_SYSTEM    = UTC
MEAN_ELEMENT_THEORY = SGP/SGP4

EPOCH          = 2025-12-27T15:29:38.507712
MEAN_MOTION    = 15.49275197
ECCENTRICITY   = .0044461
INCLINATION    = 50.1923
RA_OF_ASC_NODE = 327.4922
ARG_OF_PERICENTER = 259.8008
MEAN_ANOMALY   = 99.7944

EPHEMERIS_TYPE = 0
CLASSIFICATION_TYPE = U
NORAD_CAT_ID   = 52794
ELEMENT_SET_NO = 999
REV_AT_EPOCH   = 19894
BSTAR          = .64697E-3
MEAN_MOTION_DOT = .37206E-3
MEAN_MOTION_DDOT = 0

