SL-4 R/B                
1 39679U 14021B   25361.31153716  .00012450  00000+0  29504-3 0  9990
2 39679  51.6092 329.7595 0100600 198.8547 160.8700 15.37011716645131
ALOS-2                  
1 39766U 14029A   25361.82517731  .00004847  00000+0  65538-3 0  9990
2 39766  97.9213  96.4561 0001431  99.6969 260.4404 14.79474824626242
YAOGAN-29               
1 41038U 15069A   25361.86696755 -.00000125  00000+0 -87270-5 0  9994
2 41038  98.0211  25.0859 0001055 158.1406 201.9852 14.82896862545234
ASTRO-H (HITOMI)        
1 41337U 16012A   25361.63535370  .00004382  00000+0  26118-3 0  9994
2 41337  30.9994 101.3349 0009652 327.9799  32.0252 15.09451853541334
HXMT (HUIYAN)           
1 42758U 17034A   25361.87562663  .00007481  00000+0  38498-3 0  9995
2 42758  43.0145  55.6258 0031522 142.5538 217.7514 15.16418404471639
CZ-2C R/B               
1 43521U 18054D   25361.56033361  .00145742  00000+0  83274-3 0  9996
2 43521  35.1325  80.1600 0014185 290.6341  69.2872 15.77311118417398
SAOCOM 1A               
1 43641U 18076A   25361.86179687 -.00000119  00000+0 -83831-5 0  9999
2 43641  97.8847 186.0635 0001335  82.4480 277.6885 14.82147321390727
H-2A R/B                
1 43682U 18084L   25361.52969389  .00024532  00000+0  65165-3 0  9993
2 43682  98.8771 198.6806 0026410 274.5412  85.2812 15.37926325394679
SAOCOM 1B               
1 46265U 20059A   25361.82553762  .00001291  00000+0  16866-3 0  9996
2 46265  97.8845 185.1278 0001475  85.7803 274.3579 14.82156815288103
CSS (TIANHE)            
1 48274U 21035A   25361.82817788  .00019655  00000+0  24146-3 0  9997
2 48274  41.4675 285.0647 0008846 162.3224 197.7924 15.59773479266383
COSMOS 2550             
1 48865U 21056A   25361.85420611 -.00000154  00000+0  11403-5 0  9993
2 48865  67.1449 258.2176 0008380 269.3966  90.6228 15.33832152252442
CZ-2C R/B               
1 52794U 22058K   25361.64558458  .00037206  00000+0  64697-3 0  9998
2 52794  50.1923 327.4922 0044461 259.8008  99.7944 15.49275197198942
